343P/NEAT-LONEOS,e,5.5867,257.1675,137.4082,5.459133,0.0772714,0.58466756,139.9890,01/15.0/2022,2000,g 14.0,4.0
# From MPC109148
344P/Read,e,3.4922,273.1510,140.3902,4.863715,0.0918865,0.42248050,174.6108,01/15.0/2022,2000,g 13.0,4.0
# From MPC109148
345P/LINEAR,e,2.7274,154.5114,196.4760,4.037127,0.1215054,0.22131777,243.6310,01/15.0/2022,2000,g 12.0,4.0
# From MPC110086
346P/Catalina,e,22.1919,102.4597,335.9582,4.474708,0.1041255,0.50269154,187.0730,01/15.0/2022,2000,g 14.0,4.0
# From MPC108599
347P/PANSTARRS,e,11.7521,261.0221,98.3856,3.605030,0.1439928,0.38598398,280.6547,01/15.0/2022,2000,g 15.0,4.0
# From MPEC 2022-A21
348P/PANSTARRS,e,17.7402,312.9414,135.6601,3.150354,0.1762646,0.30678640,354.9739,01/15.0/2022,2000,g 14.0,4.0
# From MPC112394
349P/Lemmon,e,5.4908,331.7459,255.9975,3.574422,0.1458463,0.29864419,234.0427,01/15.0/2022,2000,g 14.0,4.0
# From MPC111775
350P/McNaught,e,7.3600,65.3093,139.8405,4.088241,0.1192338,0.09225660,178.1255,01/15.0/2022,2000,g 14.0,4.0
# From MPC105244
351P/Wiegert-PANSTARRS,e,12.7841,283.4423,352.6813,4.438246,0.1054113,0.29553953,237.0718,01/15.0/2022,2000,g 12.5,4.0
# From MPC110086
352P/Skiff,e,21.0106,28.0327,309.2619,6.640851,0.0575928,0.61817351,96.0167,01/15.0/2022,2000,g 11.5,4.0
# From MPEC 2020-AA5
353P/McNaught,e,28.4195,121.5526,230.4144,4.171007,0.1157025,0.47030979,171.7554,01/15.0/2022,2000,g 14.5,4.0
# From MPC105545
354P/LINEAR,e,5.2556,320.1281,132.8910,2.289348,0.2845354,0.12569699,178.6847,01/15.0/2022,2000,g 15.5,4.0
# From MPEC 2020-AA5
355P/LINEAR-NEAT,e,11.0432,51.4295,336.2711,3.470901,0.1524196,0.50753702,236.9008,01/15.0/2022,2000,g 15.5,2.0
# From MPEC 2021-F20
356P/WISE,e,9.6380,160.7978,225.9956,4.158534,0.1162234,0.35542126,173.0302,01/15.0/2022,2000,g 14.0,4.0
# From MPC114609
357P/Hill,e,6.3136,44.5618,1.3883,4.459407,0.1046619,0.43521128,138.8292,01/15.0/2022,2000,g 15.5,4.0
# From MPEC 2020-HN5
358P/PANSTARRS,e,11.0594,85.7028,299.7565,3.146905,0.1765545,0.23872566,242.5445,01/15.0/2022,2000,g 18.0,4.0
# From MPC110086
359P/LONEOS,e,10.2674,149.7557,200.2012,4.639841,0.0986165,0.32419744,158.4399,01/15.0/2022,2000,g 13.5,4.0
# From MPC108599
360P/WISE,e,24.1101,2.1909,354.1519,3.701411,0.1384054,0.49914002,222.6354,01/15.0/2022,2000,g 19.5,6.0
# From MPC114609
361P/Spacewatch,e,13.8976,203.2517,219.0208,4.937217,0.0898423,0.43843172,116.1132,01/15.0/2022,2000,g 12.0,4.0
# From MPEC 2017-V13
362P/,e,15.5562,192.5545,53.6798,3.970137,0.1245936,0.27908357,245.6680,01/15.0/2022,2000,g 12.9,2.0
# From MPC114609
363P/Lemmon,e,5.4115,146.8836,341.1682,3.559056,0.1467918,0.52225701,208.4621,01/15.0/2022,2000,g 17.5,4.0
# From MPEC 2021-F20
364P/PANSTARRS,e,12.1364,46.1724,212.0165,2.879646,0.2016951,0.72197532,262.3869,01/15.0/2022,2000,g 17.0,2.0
# From MPC111775
365P/PANSTARRS,e,9.8200,86.8628,66.8272,3.170013,0.1746275,0.57968992,249.5154,01/15.0/2022,2000,g 17.0,4.0
# From MPC114610
366P/Spacewatch,e,8.8579,70.7621,153.1047,3.496196,0.1507684,0.34808281,192.2306,01/15.0/2022,2000,g 15.0,4.0
# From MPC112395
367P/Catalina,e,8.4610,58.7220,172.8744,3.506479,0.1501057,0.27996755,195.8746,01/15.0/2022,2000,g 17.5,2.0
# From MPC114610
368P/NEAT,e,15.4808,257.9089,118.8319,5.527911,0.0758337,0.62661448,92.3643,01/15.0/2022,2000,g 14.0,4.0
# From MPC114610
369P/Hill,e,10.3183,47.2910,13.1617,4.383126,0.1074059,0.55480195,127.5442,01/15.0/2022,2000,g 15.0,4.0
# From MPEC 2021-F20
370P/NEAT,e,19.4124,55.0958,356.6831,6.434345,0.0603876,0.61490891,79.4112,01/15.0/2022,2000,g 13.0,4.0
# From MPC114610
371P/LINEAR-Skiff,e,17.3796,67.2765,308.4943,4.180888,0.1152925,0.47689144,138.0737,01/15.0/2022,2000,g 16.0,4.0
# From MPEC 2020-K19
372P/McNaught,e,9.5096,325.8171,27.4436,4.506011,0.1030423,0.15271464,121.5847,01/15.0/2022,2000,g 13.5,4.0
# From MPEC 2021-F20
373P/Rinner,e,13.7650,231.9509,221.0534,3.802457,0.1329253,0.39239639,134.5542,01/15.0/2022,2000,g 14.5,4.0
# From MPC114610
374P/Larson,e,10.7659,7.9132,51.4615,4.972652,0.0888837,0.46284452,97.7712,01/15.0/2022,2000,g 14.0,4.0
# From MPEC 2021-F20
375P/Hill,e,17.3614,359.9498,119.4176,5.553575,0.0753087,0.65859633,84.4335,01/15.0/2022,2000,g 16.0,4.0
# From MPEC 2021-S45
376P/LONEOS,e,1.1850,314.5605,284.5665,5.806124,0.0704490,0.51692461,59.3579,01/15.0/2022,2000,g 12.5,4.0
# From MPEC 2021-N06
377P/Scotti,e,9.0238,226.0632,355.0517,6.708039,0.0567297,0.25197346,31.3132,01/15.0/2022,2000,g  9.5,4.0
# From MPEC 2021-Y10
378P/McNaught,e,19.0452,94.2798,193.7893,6.358665,0.0614689,0.46914328,27.8846,01/15.0/2022,2000,g 12.0,4.0
# From MPC115889
379P/Spacewatch,e,12.4394,183.8228,30.7734,3.516191,0.1494842,0.34118899,134.1933,01/15.0/2022,2000,g 15.0,4.0
# From MPEC 2020-KB7
380P/PANSTARRS,e,8.2580,132.8568,87.2400,4.475725,0.1040900,0.33600185,99.9786,01/15.0/2022,2000,g 12.5,4.0
# From MPEC 2021-J28
381P/LINEAR-Spacewatch,e,28.3777,173.7617,173.2177,7.129231,0.0517774,0.68191968,43.5372,01/15.0/2022,2000,g 17.5,2.0
# From MPEC 2022-A21
382P/Larson,e,8.2293,173.8439,171.6598,6.483409,0.0597034,0.31836200,357.6253,01/15.0/2022,2000,g  8.0,4.0
# From MPC118844
383P/Christensen,e,12.3227,207.8466,133.7244,3.546049,0.1476002,0.59958946,119.7895,01/15.0/2022,2000,g 18.0,4.0
# From MPEC 2021-S45
384P/Kowalski,e,7.2845,354.2302,37.6174,2.900678,0.1995055,0.61584059,164.8410,01/15.0/2022,2000,g 19.5,4.0
# From MPEC 2021-F20
385P/Hill,e,16.8317,357.0606,44.3250,4.288495,0.1109805,0.40170754,94.6585,01/15.0/2022,2000,g 13.0,4.0
# From MPEC 2021-L04
386P/PANSTARRS,e,15.2297,134.9454,353.1805,4.055144,0.1206965,0.41623444,62.0202,01/15.0/2022,2000,g 14.5,4.0
# From MPEC 2021-J28
387P/Boattini,e,8.9222,259.2933,162.7745,4.797681,0.0937901,0.73633591,80.8095,01/15.0/2022,2000,g 15.0,4.0
# From MPEC 2021-S45
388P/Gibbs,e,23.8766,37.0419,42.3310,5.242674,0.0821060,0.61821409,74.4141,01/15.0/2022,2000,g 13.0,4.0
# From MPEC 2021-S45
390P/Gibbs,e,18.5619,152.2747,232.3618,5.806160,0.0704483,0.70728437,46.7490,01/15.0/2022,2000,g 12.0,4.0
# From MPEC 2021-F20
391P/Kowalski,e,21.2740,124.7347,187.1624,4.681072,0.0973164,0.12038934,135.7424,01/15.0/2022,2000,g  8.0,4.0
# From MPEC 2021-J28
392P/LINEAR,e,4.9312,24.8827,71.9263,6.143242,0.0647303,0.68285593,42.3463,01/15.0/2022,2000,g 14.5,4.0
# From MPEC 2021-BE3
393P/Spacewatch-Hill,e,16.7888,36.4073,328.4628,4.788983,0.0940457,0.12067966,76.2293,01/15.0/2022,2000,g 11.0,4.0
# From MPEC 2020-KB7
394P/PANSTARRS,e,8.5294,98.1252,54.5089,4.331407,0.1093354,0.36762952,84.9440,01/15.0/2022,2000,g 16.0,2.4
# From MPEC 2021-Y10
395P/Catalina-NEAT,e,3.2762,223.6338,89.8761,6.565088,0.0585927,0.38083370,0.9123,01/15.0/2022,2000,g 10.0,4.0
# From MPEC 2020-KB7
396P/,e,5.4364,136.6625,8.5257,6.813073,0.0554229,0.41574691,48.2692,01/15.0/2022,2000,g 12.0,4.0
# From MPEC 2021-O56
397P/Lemmon,e,10.9291,8.1973,14.4708,3.828679,0.1315620,0.40520191,75.5798,01/15.0/2022,2000,g 12.0,4.0
# From MPEC 2021-L04
398P/Boattini,e,11.0153,127.4581,320.2162,3.127646,0.1781877,0.58270514,68.4680,01/15.0/2022,2000,g 15.5,4.0
# From MPEC 2022-A21
399P/PANSTARRS,e,13.3188,207.1401,214.3111,3.790925,0.1335323,0.44708320,31.6996,01/15.0/2022,2000,g 14.0,4.0
# From MPEC 2020-FB5
400P/PANSTARRS,e,10.9296,176.3921,238.8088,3.560868,0.1466798,0.40931329,49.7000,01/15.0/2022,2000,g 15.5,2.8
# From MPEC 2021-R75
401P/McNaught,e,12.8027,359.8803,309.3740,5.774356,0.0710311,0.57995962,54.6881,01/15.0/2022,2000,g 12.5,4.0
# From MPEC 2022-A21
402P/LINEAR,e,30.8511,123.0919,326.7366,7.015905,0.0530370,0.43872708,1.6663,01/15.0/2022,2000,g  8.0,4.0
# From MPEC 2021-J28
403P/Catalina,e,12.3216,163.8124,277.6537,5.427958,0.0779380,0.50356956,37.8493,01/15.0/2022,2000,g 12.0,4.0
# From MPEC 2021-WD8
404P/Bressi,e,9.7144,260.9746,165.4539,4.796183,0.0938340,0.13572835,300.5868,01/15.0/2022,2000,g 10.0,4.0
# From MPEC 2021-L04
405P/Lemmon,e,9.3655,3.3147,112.2216,3.607779,0.1438282,0.68912863,55.6188,01/15.0/2022,2000,g 17.5,4.0
# From MPEC 2021-F20
406P/Gibbs,e,1.2135,11.4747,352.4004,3.575421,0.1457851,0.54205861,70.8819,01/15.0/2022,2000,g 17.0,4.0
# From MPEC 2021-F20
407P/PANSTARRS-Fuls,e,4.8835,80.7098,92.9679,3.465786,0.1527571,0.38369052,109.0230,01/15.0/2022,2000,g 14.0,4.0
# From MPEC 2022-A21
408P/Novichonok-Gerke,e,19.3509,189.4363,226.3202,4.751586,0.0951582,0.27012016,335.0520,01/15.0/2022,2000,g 11.0,4.0
# From MPEC 2021-UA9
409P/LONEOS-Hill,e,17.1190,143.6704,15.1232,6.044516,0.0663226,0.70982287,23.3372,01/15.0/2022,2000,g 14.0,4.0
# From MPEC 2022-A21
410P/NEAT-LINEAR,e,9.3936,139.9806,313.0923,6.636050,0.0576553,0.51071065,11.8446,01/15.0/2022,2000,g 12.5,4.0
# From MPEC 2021-J28
411P/Christensen,e,12.3783,77.6640,46.6533,5.816559,0.0702595,0.58080252,24.9872,01/15.0/2022,2000,g 13.5,4.0
# From MPEC 2021-F20
412P/WISE,e,8.9313,0.8463,155.9269,3.109505,0.1797493,0.47967498,72.9193,01/15.0/2022,2000,g 17.0,4.0
# From MPEC 2021-O56
413P/Larson,e,15.9782,39.0242,186.0539,3.710161,0.1379161,0.42321535,24.6541,01/15.0/2022,2000,g 14.0,4.0
# From MPEC 2021-BE3
414P/STEREO,e,23.3849,257.7894,210.7250,2.794140,0.2110240,0.81162509,74.8371,01/15.0/2022,2000,g 19.0,4.0
# From MPEC 2021-N06
415P/Tenagra,e,31.7920,160.2947,346.1986,4.114808,0.1180809,0.19470949,39.4594,01/15.0/2022,2000,g 12.0,4.0
# From MPEC 2021-L04
416P/Scotti,e,3.3613,355.8117,134.4869,4.012319,0.1226340,0.45430243,40.9111,01/15.0/2022,2000,g 15.5,4.0
# From MPEC 2021-W31
417P/NEOWISE,e,8.1279,111.3300,129.4837,3.350519,0.1607074,0.55482613,43.0292,01/15.0/2022,2000,g 16.5,4.0
# From MPEC 2021-L04
418P/LINEAR,e,5.7975,277.6570,307.1020,5.079290,0.0860993,0.66473620,7.7000,01/15.0/2022,2000,g 13.0,4.0
# From MPEC 2021-S45
419P/PANSTARRS,e,2.8029,40.3899,187.5017,3.520624,0.1492020,0.27761013,11.8673,01/15.0/2022,2000,g 12.5,4.0
# From MPEC 2021-S45
420P/Hill,e,14.5034,173.9549,157.1169,5.525330,0.0758869,0.49535132,350.3150,01/15.0/2022,2000,g 11.5,4.0
# From MPEC 2021-W31
421P/McNaught,e,10.0799,55.3486,259.8302,5.075400,0.0861983,0.67552239,30.5297,01/15.0/2022,2000,g 14.0,4.0
# From MPEC 2022-A21
